{
"type": "FeatureCollection",
"name": "a44_beide",
"crs": { "type": "name", "properties": { "name": "urn:ogc:def:crs:OGC:1.3:CRS84" } },
"features": [
{ "type": "Feature", "properties": { "richtung": "beide", "ref": "A 44" }, "geometry": { "type": "LineString", "coordinates": [ [ 6.478381225298323, 51.03384 ], [ 6.4786861, 51.0338955 ], [ 6.4798069, 51.0341162 ], [ 6.4806822, 51.0342886 ], [ 6.4814489, 51.034446 ], [ 6.4821434, 51.0345965 ], [ 6.4838343, 51.0350096 ] ] } },
{ "type": "Feature", "properties": { "richtung": "beide", "ref": "A 44" }, "geometry": { "type": "LineString", "coordinates": [ [ 6.4791272, 51.034168 ], [ 6.4777401, 51.0338879 ], [ 6.477493594134193, 51.03384 ] ] } },
{ "type": "Feature", "properties": { "richtung": "beide", "ref": "A 44" }, "geometry": { "type": "LineString", "coordinates": [ [ 6.4838343, 51.0350096 ], [ 6.4839697, 51.0350436 ], [ 6.4847174, 51.0352573 ], [ 6.4858355, 51.0355814 ], [ 6.486446, 51.0357908 ], [ 6.4870449, 51.0359979 ], [ 6.4876006, 51.036214 ], [ 6.4885803, 51.0366109 ], [ 6.4893379, 51.0369442 ], [ 6.490671, 51.0375932 ], [ 6.491541, 51.0380645 ], [ 6.4926706, 51.0387275 ], [ 6.4936707, 51.0393992 ], [ 6.494294, 51.0398481 ], [ 6.4949994, 51.0403949 ], [ 6.4960327, 51.0412928 ], [ 6.4968774, 51.0421413 ], [ 6.4970798, 51.0423598 ], [ 6.4972781, 51.042581 ], [ 6.497487, 51.0428221 ], [ 6.4977209, 51.0431026 ], [ 6.4978209, 51.0432247 ], [ 6.4980383, 51.0435026 ], [ 6.4982453, 51.0437838 ], [ 6.4983572, 51.043938 ], [ 6.4985641, 51.0442365 ], [ 6.498748, 51.0445176 ], [ 6.4988527, 51.0446837 ], [ 6.4990411, 51.0449948 ], [ 6.499219, 51.0453039 ], [ 6.4993, 51.0454557 ], [ 6.499453, 51.0457478 ], [ 6.4995308, 51.0459049 ], [ 6.4996044, 51.0460568 ], [ 6.4997496, 51.0463717 ], [ 6.4998172, 51.0465282 ], [ 6.499885, 51.0466889 ], [ 6.4999476, 51.046843 ], [ 6.5000033, 51.0469876 ], [ 6.5000639, 51.0471506 ], [ 6.5001187, 51.0473086 ], [ 6.5001741, 51.0474699 ], [ 6.5002285, 51.0476371 ], [ 6.5002767, 51.047793 ], [ 6.500368, 51.0481114 ], [ 6.5004102, 51.0482787 ], [ 6.5004868, 51.0485957 ], [ 6.500556, 51.0489176 ], [ 6.5005855, 51.0490755 ], [ 6.500613, 51.0492364 ], [ 6.5006421, 51.0494107 ], [ 6.5006634, 51.049563 ], [ 6.5006833, 51.0497272 ], [ 6.5007174, 51.0500503 ], [ 6.5007434, 51.0503717 ], [ 6.5007516, 51.0505296 ], [ 6.5007605, 51.0508522 ], [ 6.5007634, 51.0510312 ], [ 6.5007583, 51.0513442 ], [ 6.5007464, 51.0516709 ], [ 6.5007348, 51.0518399 ], [ 6.5007073, 51.0521541 ], [ 6.5006857, 51.0523438 ], [ 6.5006477, 51.0526358 ], [ 6.5006224, 51.0528006 ], [ 6.5005676, 51.0531183 ], [ 6.5004992, 51.0534461 ], [ 6.5004646, 51.0536046 ], [ 6.500384, 51.0539182 ], [ 6.5002943, 51.0542363 ], [ 6.5001949, 51.0545586 ], [ 6.5000864, 51.0548774 ], [ 6.4999684, 51.0551909 ], [ 6.4998413, 51.055508 ], [ 6.499705, 51.0558246 ], [ 6.4995622, 51.0561333 ], [ 6.4994116, 51.0564449 ], [ 6.4993316, 51.0566018 ], [ 6.4991675, 51.0569103 ], [ 6.4990838, 51.0570631 ], [ 6.4989122, 51.0573652 ], [ 6.4987317, 51.0576725 ], [ 6.4984493, 51.0581256 ], [ 6.4982543, 51.0584241 ], [ 6.4980543, 51.0587251 ], [ 6.4978486, 51.0590212 ], [ 6.4976374, 51.0593162 ], [ 6.4973166, 51.0597506 ], [ 6.497088, 51.06005 ], [ 6.4968591, 51.0603444 ], [ 6.4966312, 51.0606347 ], [ 6.4963972, 51.0609235 ], [ 6.4961651, 51.0612066 ], [ 6.4959241, 51.0614948 ], [ 6.4955619, 51.0619236 ], [ 6.4953194, 51.0622074 ], [ 6.4950715, 51.0624946 ], [ 6.4948223, 51.0627766 ], [ 6.4945704, 51.0630632 ], [ 6.4941923, 51.0634901 ], [ 6.4938172, 51.063909 ], [ 6.4931809, 51.0646184 ], [ 6.4927954, 51.0650468 ], [ 6.492418, 51.065469 ], [ 6.4921645, 51.0657507 ], [ 6.4919077, 51.0660374 ], [ 6.4916563, 51.066318 ], [ 6.4912726, 51.0667443 ], [ 6.4910178, 51.0670279 ], [ 6.4907597, 51.0673163 ], [ 6.4902501, 51.0678823 ], [ 6.4901243, 51.0680231 ], [ 6.4899958, 51.0681678 ], [ 6.4897406, 51.0684517 ], [ 6.4893607, 51.0688747 ], [ 6.4888511, 51.0694437 ], [ 6.4887239, 51.0695842 ], [ 6.4885988, 51.0697258 ], [ 6.4884742, 51.0698639 ], [ 6.4883459, 51.0700083 ], [ 6.488218, 51.0701506 ], [ 6.4880905, 51.0702907 ], [ 6.4879639, 51.0704318 ], [ 6.4878334, 51.0705783 ], [ 6.487706, 51.0707185 ], [ 6.4875772, 51.0708617 ], [ 6.4874568, 51.0709966 ], [ 6.4873221, 51.0711465 ], [ 6.4871935, 51.0712904 ], [ 6.4869374, 51.0715748 ], [ 6.485795, 51.0728486 ], [ 6.4854135, 51.0732742 ], [ 6.4852882, 51.0734124 ], [ 6.4851587, 51.0735615 ], [ 6.4850335, 51.0737004 ], [ 6.4827426, 51.0762473 ], [ 6.4805767, 51.0786622 ], [ 6.4800611, 51.0792368 ], [ 6.4799342, 51.0793788 ], [ 6.4798073, 51.0795195 ], [ 6.4796849, 51.0796573 ], [ 6.4795605, 51.0797962 ], [ 6.4792964, 51.0800888 ], [ 6.4791678, 51.0802319 ], [ 6.4790467, 51.0803678 ], [ 6.4789108, 51.0805172 ], [ 6.4787884, 51.0806509 ], [ 6.4786457, 51.0808098 ], [ 6.4785048, 51.0809682 ], [ 6.4784018, 51.0810838 ], [ 6.4782332, 51.0812734 ], [ 6.4781395, 51.0813801 ], [ 6.4780408, 51.0814919 ], [ 6.4779611, 51.0815843 ], [ 6.4778887, 51.0816668 ], [ 6.4778178, 51.0817488 ], [ 6.4777492, 51.0818286 ], [ 6.4776812, 51.08191 ], [ 6.4775707, 51.082046 ], [ 6.4774927, 51.0821402 ], [ 6.4774127, 51.0822386 ], [ 6.4773153, 51.0823595 ], [ 6.4772493, 51.0824425 ], [ 6.4771895, 51.0825216 ], [ 6.4770441, 51.0827108 ], [ 6.476973, 51.0828055 ], [ 6.4769061, 51.0828975 ], [ 6.4768102, 51.0830352 ], [ 6.4766997, 51.0831998 ], [ 6.4766273, 51.083308 ], [ 6.4765549, 51.0834221 ], [ 6.4764644, 51.0835703 ], [ 6.4763729, 51.0837266 ], [ 6.4763179, 51.0838251 ], [ 6.476265, 51.0839223 ], [ 6.4762099, 51.0840333 ], [ 6.476159, 51.0841404 ], [ 6.4761071, 51.0842482 ], [ 6.4760593, 51.0843546 ], [ 6.476013, 51.0844611 ], [ 6.4759688, 51.0845701 ], [ 6.4759278, 51.0846801 ], [ 6.4758909, 51.0847875 ], [ 6.4758558, 51.0848931 ], [ 6.4758248, 51.0849934 ], [ 6.4757954, 51.0851025 ], [ 6.4757681, 51.0852065 ] ] } },
{ "type": "Feature", "properties": { "richtung": "beide", "ref": "A 44" }, "geometry": { "type": "LineString", "coordinates": [ [ 6.4757681, 51.0852065 ], [ 6.4757547, 51.085384 ], [ 6.4757404, 51.0857239 ], [ 6.4757341, 51.0858792 ], [ 6.475733875782882, 51.085915 ] ] } },
{ "type": "Feature", "properties": { "richtung": "beide", "ref": "A 44" }, "geometry": { "type": "LineString", "coordinates": [ [ 6.475339237459881, 51.085915 ], [ 6.4753569, 51.085709 ], [ 6.4753778, 51.0854811 ] ] } },
{ "type": "Feature", "properties": { "richtung": "beide", "ref": "A 44" }, "geometry": { "type": "LineString", "coordinates": [ [ 6.4753778, 51.0854811 ], [ 6.4753945, 51.0853937 ], [ 6.4754152, 51.0853039 ], [ 6.475457, 51.0851298 ], [ 6.475478, 51.0850519 ], [ 6.4754989, 51.0849727 ], [ 6.4755235, 51.084893 ], [ 6.475552, 51.0848083 ], [ 6.4756072, 51.0846515 ], [ 6.4756681, 51.0844912 ], [ 6.475734, 51.084331 ], [ 6.475806, 51.0841716 ], [ 6.475875, 51.0840229 ], [ 6.4759531, 51.0838678 ], [ 6.4760402, 51.0837099 ], [ 6.4761261, 51.0835592 ], [ 6.4762201, 51.0834003 ], [ 6.476316, 51.0832496 ], [ 6.4764131, 51.0831033 ], [ 6.4765145, 51.0829545 ], [ 6.4766229, 51.0828028 ], [ 6.4767319, 51.0826557 ], [ 6.4768415, 51.0825109 ], [ 6.4769519, 51.0823663 ], [ 6.4770668, 51.0822203 ], [ 6.4771852, 51.0820743 ], [ 6.4773013, 51.0819355 ], [ 6.4774247, 51.0817895 ], [ 6.4775467, 51.0816458 ], [ 6.4776707, 51.081501 ], [ 6.4777946, 51.0813611 ], [ 6.4779197, 51.0812204 ], [ 6.4780448, 51.0810775 ], [ 6.4781723, 51.0809354 ], [ 6.4782989, 51.0807936 ], [ 6.4784252, 51.0806547 ], [ 6.4785543, 51.0805137 ], [ 6.4786853, 51.0803688 ], [ 6.4789349, 51.080092 ], [ 6.479064, 51.0799465 ], [ 6.4791887, 51.0798081 ], [ 6.479955, 51.0789553 ], [ 6.4802006, 51.0786808 ], [ 6.4824499, 51.0761731 ], [ 6.4840133, 51.0744306 ], [ 6.484266, 51.0741511 ], [ 6.4845212, 51.0738669 ], [ 6.4848984, 51.0734453 ], [ 6.4854123, 51.0728743 ], [ 6.4856672, 51.0725904 ], [ 6.4859189, 51.0723062 ], [ 6.4861727, 51.072028 ], [ 6.4864289, 51.0717391 ], [ 6.4866817, 51.0714596 ], [ 6.4869345, 51.0711771 ], [ 6.4873137, 51.0707545 ], [ 6.4875676, 51.0704717 ], [ 6.4878245, 51.0701866 ], [ 6.4880755, 51.0699033 ], [ 6.4882038, 51.0697628 ], [ 6.4883311, 51.0696212 ], [ 6.4884584, 51.0694795 ], [ 6.4885852, 51.069339 ], [ 6.4888393, 51.0690538 ], [ 6.4890888, 51.0687771 ], [ 6.489345, 51.0684911 ], [ 6.4895985, 51.0682071 ], [ 6.4899753, 51.0677864 ], [ 6.4906822, 51.067001 ], [ 6.4911199, 51.0665109 ], [ 6.4913751, 51.0662267 ], [ 6.4916272, 51.065947 ], [ 6.4917545, 51.0658037 ], [ 6.4918849, 51.065658 ], [ 6.4920062, 51.0655236 ], [ 6.4922605, 51.0652412 ], [ 6.4923857, 51.0651023 ], [ 6.493017, 51.0643962 ], [ 6.49315, 51.0642494 ], [ 6.4934082, 51.0639605 ], [ 6.4936596, 51.0636813 ], [ 6.4939115, 51.0633984 ], [ 6.4940368, 51.0632579 ], [ 6.4941614, 51.0631174 ], [ 6.4944054, 51.0628416 ], [ 6.4946525, 51.0625609 ], [ 6.4947894, 51.0624049 ], [ 6.4950244, 51.0621338 ], [ 6.49539, 51.0617069 ], [ 6.495509, 51.0615689 ], [ 6.4956278, 51.061427 ], [ 6.495749, 51.0612824 ], [ 6.4958677, 51.0611403 ], [ 6.4959874, 51.0609938 ], [ 6.4961068, 51.0608473 ], [ 6.4962226, 51.0607046 ], [ 6.496338, 51.0605615 ], [ 6.4964527, 51.0604182 ], [ 6.4965652, 51.0602756 ], [ 6.4966782, 51.060132 ], [ 6.4967946, 51.0599809 ], [ 6.4969035, 51.0598375 ], [ 6.4970151, 51.0596903 ], [ 6.4971244, 51.0595433 ], [ 6.4972251, 51.059407 ], [ 6.4973355, 51.0592545 ], [ 6.497442, 51.0591074 ], [ 6.4975471, 51.0589608 ], [ 6.4976481, 51.0588133 ], [ 6.4977518, 51.0586638 ], [ 6.4978556, 51.0585107 ], [ 6.4979521, 51.0583655 ], [ 6.4980502, 51.0582159 ], [ 6.4981486, 51.0580644 ], [ 6.49824, 51.0579195 ], [ 6.4983368, 51.0577651 ], [ 6.4984275, 51.0576155 ], [ 6.4985166, 51.0574676 ], [ 6.4987784, 51.0570097 ], [ 6.4988619, 51.0568568 ], [ 6.4989453, 51.0567046 ], [ 6.499026, 51.0565512 ], [ 6.4991027, 51.0564005 ], [ 6.4992581, 51.0560832 ], [ 6.4993282, 51.0559339 ], [ 6.4994007, 51.0557724 ], [ 6.49947, 51.0556161 ], [ 6.4995372, 51.0554571 ], [ 6.4996017, 51.0553003 ], [ 6.4996641, 51.0551408 ], [ 6.4997234, 51.054985 ], [ 6.4997784, 51.0548299 ], [ 6.4998327, 51.0546768 ], [ 6.499885, 51.0545224 ], [ 6.4999366, 51.0543617 ], [ 6.4999846, 51.0542046 ], [ 6.500032, 51.0540422 ], [ 6.5000754, 51.0538801 ], [ 6.5001152, 51.0537244 ], [ 6.5001551, 51.0535637 ], [ 6.5001914, 51.0534062 ], [ 6.5002253, 51.0532464 ], [ 6.5002565, 51.053085 ], [ 6.5002854, 51.0529268 ], [ 6.5003117, 51.0527672 ], [ 6.5003349, 51.0526179 ], [ 6.5003593, 51.0524427 ], [ 6.5003794, 51.0522775 ], [ 6.5003948, 51.0521158 ], [ 6.5004093, 51.0519627 ], [ 6.5004225, 51.0517967 ], [ 6.5004322, 51.0516428 ], [ 6.5004395, 51.0514852 ], [ 6.5004446, 51.0513176 ], [ 6.5004484, 51.0511552 ], [ 6.5004485, 51.0509857 ], [ 6.5004465, 51.0508247 ], [ 6.5004418, 51.0506696 ], [ 6.5004352, 51.0505055 ], [ 6.5004262, 51.0503438 ], [ 6.5004145, 51.0501808 ], [ 6.5004017, 51.0500189 ], [ 6.5003845, 51.0498594 ], [ 6.5003442, 51.0495376 ], [ 6.5003212, 51.0493854 ], [ 6.5002935, 51.0492204 ], [ 6.5002682, 51.0490684 ], [ 6.5002344, 51.0489005 ], [ 6.5002037, 51.0487419 ], [ 6.5001687, 51.0485837 ], [ 6.5001307, 51.0484245 ], [ 6.5000904, 51.0482639 ], [ 6.5000483, 51.0481123 ], [ 6.500003, 51.0479504 ], [ 6.49995, 51.0477754 ], [ 6.4999009, 51.0476202 ], [ 6.4998531, 51.047472 ], [ 6.499798, 51.0473141 ], [ 6.4997399, 51.0471492 ], [ 6.4996831, 51.0469988 ], [ 6.4996175, 51.0468338 ], [ 6.4995513, 51.0466721 ], [ 6.4994897, 51.0465276 ], [ 6.4994289, 51.0463861 ], [ 6.4993483, 51.0462089 ], [ 6.4992759, 51.0460572 ], [ 6.4992063, 51.0459124 ], [ 6.4991335, 51.0457685 ], [ 6.4990502, 51.0456079 ], [ 6.4989646, 51.0454521 ], [ 6.498882, 51.0453021 ], [ 6.4987918, 51.0451454 ], [ 6.4986985, 51.0449867 ], [ 6.4986105, 51.0448405 ], [ 6.4985234, 51.0446995 ], [ 6.4984269, 51.0445482 ], [ 6.4983267, 51.0443942 ], [ 6.4982296, 51.0442493 ], [ 6.4981205, 51.0440934 ], [ 6.4980128, 51.0439407 ], [ 6.4979107, 51.0438014 ], [ 6.4978048, 51.0436572 ], [ 6.49769, 51.0435092 ], [ 6.4975692, 51.0433565 ], [ 6.4974594, 51.0432168 ], [ 6.4973423, 51.0430764 ], [ 6.4972238, 51.0429332 ], [ 6.4971013, 51.042792 ], [ 6.4969725, 51.0426449 ], [ 6.4968435, 51.0424995 ], [ 6.4967214, 51.0423647 ], [ 6.4965944, 51.0422313 ], [ 6.496481, 51.0421114 ], [ 6.4963387, 51.0419643 ], [ 6.4961882, 51.0418136 ], [ 6.4960501, 51.041676 ], [ 6.4956224, 51.0412447 ], [ 6.4943813, 51.0402147 ], [ 6.4933905, 51.0394971 ], [ 6.4924651, 51.0388861 ], [ 6.4913937, 51.0382408 ], [ 6.4904321, 51.0377252 ], [ 6.4892045, 51.0371302 ], [ 6.4883079, 51.0367324 ], [ 6.4875088, 51.0364084 ], [ 6.4870765, 51.0362396 ], [ 6.4865052, 51.0360318 ], [ 6.4858194, 51.0357984 ], [ 6.4847886, 51.035478 ], [ 6.4838768, 51.0352249 ], [ 6.4829521, 51.0349827 ], [ 6.4813937, 51.0346336 ], [ 6.4791272, 51.034168 ] ] } }
]
}
