{
"type": "FeatureCollection",
"name": "a44_nord",
"crs": { "type": "name", "properties": { "name": "urn:ogc:def:crs:OGC:1.3:CRS84" } },
"features": [
{ "type": "Feature", "properties": { "richtung": "nord", "ref": "A 44" }, "geometry": { "type": "LineString", "coordinates": [ [ 6.4838343, 51.0350096 ], [ 6.4839697, 51.0350436 ], [ 6.4847174, 51.0352573 ], [ 6.4858355, 51.0355814 ], [ 6.486446, 51.0357908 ], [ 6.4870449, 51.0359979 ], [ 6.4876006, 51.036214 ], [ 6.4885803, 51.0366109 ], [ 6.4893379, 51.0369442 ], [ 6.490671, 51.0375932 ], [ 6.491541, 51.0380645 ], [ 6.4926706, 51.0387275 ], [ 6.4936707, 51.0393992 ], [ 6.494294, 51.0398481 ], [ 6.4949994, 51.0403949 ], [ 6.4960327, 51.0412928 ], [ 6.4968774, 51.0421413 ], [ 6.4970798, 51.0423598 ], [ 6.4972781, 51.042581 ], [ 6.497487, 51.0428221 ], [ 6.4977209, 51.0431026 ], [ 6.4978209, 51.0432247 ], [ 6.4980383, 51.0435026 ], [ 6.4982453, 51.0437838 ], [ 6.4983572, 51.043938 ], [ 6.4985641, 51.0442365 ], [ 6.498748, 51.0445176 ], [ 6.4988527, 51.0446837 ], [ 6.4990411, 51.0449948 ], [ 6.499219, 51.0453039 ], [ 6.4993, 51.0454557 ], [ 6.499453, 51.0457478 ], [ 6.4995308, 51.0459049 ], [ 6.4996044, 51.0460568 ], [ 6.4997496, 51.0463717 ], [ 6.4998172, 51.0465282 ], [ 6.499885, 51.0466889 ], [ 6.4999476, 51.046843 ], [ 6.5000033, 51.0469876 ], [ 6.5000639, 51.0471506 ], [ 6.5001187, 51.0473086 ], [ 6.5001741, 51.0474699 ], [ 6.5002285, 51.0476371 ], [ 6.5002767, 51.047793 ], [ 6.500368, 51.0481114 ], [ 6.5004102, 51.0482787 ], [ 6.5004868, 51.0485957 ], [ 6.500556, 51.0489176 ], [ 6.5005855, 51.0490755 ], [ 6.500613, 51.0492364 ], [ 6.5006421, 51.0494107 ], [ 6.5006634, 51.049563 ], [ 6.5006833, 51.0497272 ], [ 6.5007174, 51.0500503 ], [ 6.5007434, 51.0503717 ], [ 6.5007516, 51.0505296 ], [ 6.5007605, 51.0508522 ], [ 6.5007634, 51.0510312 ], [ 6.5007583, 51.0513442 ], [ 6.5007464, 51.0516709 ], [ 6.5007348, 51.0518399 ], [ 6.5007073, 51.0521541 ], [ 6.5006857, 51.0523438 ], [ 6.5006477, 51.0526358 ], [ 6.5006224, 51.0528006 ], [ 6.5005676, 51.0531183 ], [ 6.5004992, 51.0534461 ], [ 6.5004646, 51.0536046 ], [ 6.500384, 51.0539182 ], [ 6.5002943, 51.0542363 ], [ 6.5001949, 51.0545586 ], [ 6.5000864, 51.0548774 ], [ 6.4999684, 51.0551909 ], [ 6.4998413, 51.055508 ], [ 6.499705, 51.0558246 ], [ 6.4995622, 51.0561333 ], [ 6.4994116, 51.0564449 ], [ 6.4993316, 51.0566018 ], [ 6.4991675, 51.0569103 ], [ 6.4990838, 51.0570631 ], [ 6.4989122, 51.0573652 ], [ 6.4987317, 51.0576725 ], [ 6.4984493, 51.0581256 ], [ 6.4982543, 51.0584241 ], [ 6.4980543, 51.0587251 ], [ 6.4978486, 51.0590212 ], [ 6.4976374, 51.0593162 ], [ 6.4973166, 51.0597506 ], [ 6.497088, 51.06005 ], [ 6.4968591, 51.0603444 ], [ 6.4966312, 51.0606347 ], [ 6.4963972, 51.0609235 ], [ 6.4961651, 51.0612066 ], [ 6.4959241, 51.0614948 ], [ 6.4955619, 51.0619236 ], [ 6.4953194, 51.0622074 ], [ 6.4950715, 51.0624946 ], [ 6.4948223, 51.0627766 ], [ 6.4945704, 51.0630632 ], [ 6.4941923, 51.0634901 ], [ 6.4938172, 51.063909 ], [ 6.4931809, 51.0646184 ], [ 6.4927954, 51.0650468 ], [ 6.492418, 51.065469 ], [ 6.4921645, 51.0657507 ], [ 6.4919077, 51.0660374 ], [ 6.4916563, 51.066318 ], [ 6.4912726, 51.0667443 ], [ 6.4910178, 51.0670279 ], [ 6.4907597, 51.0673163 ], [ 6.4902501, 51.0678823 ], [ 6.4901243, 51.0680231 ], [ 6.4899958, 51.0681678 ], [ 6.4897406, 51.0684517 ], [ 6.4893607, 51.0688747 ], [ 6.4888511, 51.0694437 ], [ 6.4887239, 51.0695842 ], [ 6.4885988, 51.0697258 ], [ 6.4884742, 51.0698639 ], [ 6.4883459, 51.0700083 ], [ 6.488218, 51.0701506 ], [ 6.4880905, 51.0702907 ], [ 6.4879639, 51.0704318 ], [ 6.4878334, 51.0705783 ], [ 6.487706, 51.0707185 ], [ 6.4875772, 51.0708617 ], [ 6.4874568, 51.0709966 ], [ 6.4873221, 51.0711465 ], [ 6.4871935, 51.0712904 ], [ 6.4869374, 51.0715748 ], [ 6.485795, 51.0728486 ], [ 6.4854135, 51.0732742 ], [ 6.4852882, 51.0734124 ], [ 6.4851587, 51.0735615 ], [ 6.4850335, 51.0737004 ], [ 6.4827426, 51.0762473 ], [ 6.4805767, 51.0786622 ], [ 6.4800611, 51.0792368 ], [ 6.4799342, 51.0793788 ], [ 6.4798073, 51.0795195 ], [ 6.4796849, 51.0796573 ], [ 6.4795605, 51.0797962 ], [ 6.4792964, 51.0800888 ], [ 6.4791678, 51.0802319 ], [ 6.4790467, 51.0803678 ], [ 6.4789108, 51.0805172 ], [ 6.4787884, 51.0806509 ], [ 6.4786457, 51.0808098 ], [ 6.4785048, 51.0809682 ], [ 6.4784018, 51.0810838 ], [ 6.4782332, 51.0812734 ], [ 6.4781395, 51.0813801 ], [ 6.4780408, 51.0814919 ], [ 6.4779611, 51.0815843 ], [ 6.4778887, 51.0816668 ], [ 6.4778178, 51.0817488 ], [ 6.4777492, 51.0818286 ], [ 6.4776812, 51.08191 ], [ 6.4775707, 51.082046 ], [ 6.4774927, 51.0821402 ], [ 6.4774127, 51.0822386 ], [ 6.4773153, 51.0823595 ], [ 6.4772493, 51.0824425 ], [ 6.4771895, 51.0825216 ], [ 6.4770441, 51.0827108 ], [ 6.476973, 51.0828055 ], [ 6.4769061, 51.0828975 ], [ 6.4768102, 51.0830352 ], [ 6.4766997, 51.0831998 ], [ 6.4766273, 51.083308 ], [ 6.4765549, 51.0834221 ], [ 6.4764644, 51.0835703 ], [ 6.4763729, 51.0837266 ], [ 6.4763179, 51.0838251 ], [ 6.476265, 51.0839223 ], [ 6.4762099, 51.0840333 ], [ 6.476159, 51.0841404 ], [ 6.4761071, 51.0842482 ], [ 6.4760593, 51.0843546 ], [ 6.476013, 51.0844611 ], [ 6.4759688, 51.0845701 ], [ 6.4759278, 51.0846801 ], [ 6.4758909, 51.0847875 ], [ 6.4758558, 51.0848931 ], [ 6.4758248, 51.0849934 ], [ 6.4757954, 51.0851025 ], [ 6.4757681, 51.0852065 ] ] } },
{ "type": "Feature", "properties": { "richtung": "nord", "ref": "A 44" }, "geometry": { "type": "LineString", "coordinates": [ [ 6.4757681, 51.0852065 ], [ 6.4757547, 51.085384 ], [ 6.4757404, 51.0857239 ], [ 6.4757341, 51.0858792 ], [ 6.475733875782882, 51.085915 ] ] } }
]
}
