{
"type": "FeatureCollection",
"name": "a46_west",
"crs": { "type": "name", "properties": { "name": "urn:ogc:def:crs:OGC:1.3:CRS84" } },
"features": [
{ "type": "Feature", "properties": { "richtung": "west", "ref": "A 46" }, "geometry": { "type": "LineString", "coordinates": [ [ 6.46292, 51.092933850536276 ], [ 6.4627829, 51.0929267 ], [ 6.4623006, 51.0929084 ], [ 6.4619228, 51.0928965 ], [ 6.461561, 51.0928876 ], [ 6.4611912, 51.0928808 ], [ 6.460826, 51.0928754 ], [ 6.4601154, 51.0928738 ], [ 6.459407, 51.0928807 ], [ 6.4585756, 51.0929016 ], [ 6.4578697, 51.0929253 ], [ 6.4574168, 51.0929475 ], [ 6.4569708, 51.0929726 ], [ 6.4565272, 51.0930017 ], [ 6.4560858, 51.0930323 ], [ 6.4557409, 51.0930588 ], [ 6.455403, 51.0930868 ], [ 6.4547259, 51.0931501 ], [ 6.4539794, 51.0932291 ], [ 6.4532283, 51.0933196 ], [ 6.4525047, 51.0934176 ], [ 6.4518074, 51.0935221 ], [ 6.4512029, 51.0936167 ], [ 6.4505754, 51.0937242 ], [ 6.4499711, 51.0938357 ], [ 6.4493805, 51.0939545 ], [ 6.4488828, 51.0940585 ], [ 6.4483805, 51.0941711 ], [ 6.4473647, 51.0944162 ], [ 6.4473, 51.094433386365559 ] ] } },
{ "type": "Feature", "properties": { "richtung": "west", "ref": "A 46" }, "geometry": { "type": "LineString", "coordinates": [ [ 6.5106, 51.096470762828687 ], [ 6.5105041, 51.0964802 ], [ 6.5102627, 51.0965061 ], [ 6.5096849, 51.0965658 ], [ 6.5090996, 51.0966327 ], [ 6.5078756, 51.0967654 ], [ 6.507529, 51.0968016 ], [ 6.5071862, 51.0968355 ], [ 6.5068416, 51.0968681 ], [ 6.5065463, 51.0968925 ], [ 6.5062499, 51.0969145 ], [ 6.5059992, 51.0969305 ], [ 6.5057494, 51.0969454 ], [ 6.505511, 51.0969579 ], [ 6.505134, 51.0969743 ], [ 6.5047968, 51.096986 ], [ 6.5044464, 51.096994 ], [ 6.5040998, 51.0969997 ], [ 6.5037654, 51.0970006 ], [ 6.503431, 51.0969978 ], [ 6.5030662, 51.0969911 ], [ 6.5027015, 51.0969809 ], [ 6.5024485, 51.0969729 ], [ 6.5022884, 51.0969656 ], [ 6.5021284, 51.0969583 ], [ 6.5018623, 51.0969447 ], [ 6.5015773, 51.0969287 ], [ 6.5011755, 51.096905 ], [ 6.500766, 51.0968801 ], [ 6.5004231, 51.0968567 ], [ 6.5000878, 51.0968297 ], [ 6.4994686, 51.096783 ], [ 6.4991669, 51.0967604 ], [ 6.4989031, 51.0967391 ], [ 6.4986195, 51.0967147 ], [ 6.4983472, 51.0966928 ], [ 6.4979542, 51.0966571 ], [ 6.4975726, 51.0966203 ], [ 6.4972139, 51.0965859 ], [ 6.4968228, 51.0965455 ], [ 6.4965709, 51.0965199 ], [ 6.4963342, 51.0964943 ], [ 6.4961052, 51.0964676 ], [ 6.4958761, 51.0964408 ], [ 6.4956447, 51.0964146 ], [ 6.4954285, 51.0963884 ], [ 6.4952065, 51.0963599 ], [ 6.4949846, 51.0963313 ], [ 6.4947522, 51.0963023 ], [ 6.4945198, 51.0962733 ], [ 6.49446, 51.096264729849388 ] ] } },
{ "type": "Feature", "properties": { "richtung": "west", "ref": "A 46" }, "geometry": { "type": "LineString", "coordinates": [ [ 6.52021, 51.097141051377818 ], [ 6.5201519, 51.0971286 ], [ 6.5195419, 51.0969994 ], [ 6.5189984, 51.0968864 ], [ 6.5184757, 51.0967817 ], [ 6.5182544, 51.0967394 ], [ 6.5180692, 51.0967056 ], [ 6.5178801, 51.0966705 ], [ 6.5176949, 51.0966379 ], [ 6.5174618, 51.0965985 ], [ 6.5172269, 51.0965615 ], [ 6.5169833, 51.0965245 ], [ 6.5167379, 51.0964899 ], [ 6.5164504, 51.0964517 ], [ 6.5161667, 51.0964184 ], [ 6.5159773, 51.0963985 ], [ 6.5157973, 51.0963798 ], [ 6.5156003, 51.0963623 ], [ 6.5153861, 51.0963472 ], [ 6.5151071, 51.0963288 ], [ 6.514832, 51.0963139 ], [ 6.5145139, 51.0963017 ], [ 6.5141959, 51.0962943 ], [ 6.5138904, 51.0962902 ], [ 6.5135849, 51.0962884 ], [ 6.5132852, 51.0962927 ], [ 6.5129816, 51.0963005 ], [ 6.5127682, 51.0963081 ], [ 6.5125776, 51.0963157 ], [ 6.5123937, 51.0963258 ], [ 6.5122022, 51.096337 ], [ 6.51206, 51.09634610785124 ] ] } }
]
}
