{
"type": "FeatureCollection",
"name": "a46_beide",
"crs": { "type": "name", "properties": { "name": "urn:ogc:def:crs:OGC:1.3:CRS84" } },
"features": [
{ "type": "Feature", "properties": { "richtung": "beide", "ref": "A 46" }, "geometry": { "type": "LineString", "coordinates": [ [ 6.4473, 51.094283567768258 ], [ 6.4474189, 51.0942532 ], [ 6.4478764, 51.0941411 ], [ 6.4482093, 51.0940624 ], [ 6.4485393, 51.0939875 ], [ 6.4488662, 51.0939154 ], [ 6.4491887, 51.0938461 ], [ 6.4498659, 51.09371 ], [ 6.4502022, 51.0936457 ], [ 6.4505415, 51.0935851 ], [ 6.4511482, 51.0934818 ], [ 6.451749, 51.0933842 ], [ 6.4523004, 51.0933037 ], [ 6.4528413, 51.0932273 ], [ 6.4533886, 51.093157 ], [ 6.4539331, 51.0930921 ], [ 6.4544776, 51.0930329 ], [ 6.4553034, 51.0929546 ], [ 6.4557051, 51.0929202 ], [ 6.4561188, 51.0928876 ], [ 6.4565264, 51.0928605 ], [ 6.4569461, 51.0928334 ], [ 6.4573642, 51.0928096 ], [ 6.4575643, 51.0927995 ], [ 6.4577764, 51.0927895 ], [ 6.4581972, 51.0927735 ], [ 6.4585941, 51.0927594 ], [ 6.4589911, 51.0927481 ], [ 6.4593942, 51.0927405 ], [ 6.4596771, 51.0927377 ], [ 6.459957, 51.0927349 ], [ 6.4603477, 51.0927381 ], [ 6.4607595, 51.0927433 ], [ 6.462034, 51.0927705 ], [ 6.46292, 51.092806893244372 ] ] } },
{ "type": "Feature", "properties": { "richtung": "beide", "ref": "A 46" }, "geometry": { "type": "LineString", "coordinates": [ [ 6.46292, 51.092933850536276 ], [ 6.4627829, 51.0929267 ], [ 6.4623006, 51.0929084 ], [ 6.4619228, 51.0928965 ], [ 6.461561, 51.0928876 ], [ 6.4611912, 51.0928808 ], [ 6.460826, 51.0928754 ], [ 6.4601154, 51.0928738 ], [ 6.459407, 51.0928807 ], [ 6.4585756, 51.0929016 ], [ 6.4578697, 51.0929253 ], [ 6.4574168, 51.0929475 ], [ 6.4569708, 51.0929726 ], [ 6.4565272, 51.0930017 ], [ 6.4560858, 51.0930323 ], [ 6.4557409, 51.0930588 ], [ 6.455403, 51.0930868 ], [ 6.4547259, 51.0931501 ], [ 6.4539794, 51.0932291 ], [ 6.4532283, 51.0933196 ], [ 6.4525047, 51.0934176 ], [ 6.4518074, 51.0935221 ], [ 6.4512029, 51.0936167 ], [ 6.4505754, 51.0937242 ], [ 6.4499711, 51.0938357 ], [ 6.4493805, 51.0939545 ], [ 6.4488828, 51.0940585 ], [ 6.4483805, 51.0941711 ], [ 6.4473647, 51.0944162 ], [ 6.4473, 51.094433386365559 ] ] } },
{ "type": "Feature", "properties": { "richtung": "beide", "ref": "A 46" }, "geometry": { "type": "LineString", "coordinates": [ [ 6.5106, 51.096470762828687 ], [ 6.5105041, 51.0964802 ], [ 6.5102627, 51.0965061 ], [ 6.5096849, 51.0965658 ], [ 6.5090996, 51.0966327 ], [ 6.5078756, 51.0967654 ], [ 6.507529, 51.0968016 ], [ 6.5071862, 51.0968355 ], [ 6.5068416, 51.0968681 ], [ 6.5065463, 51.0968925 ], [ 6.5062499, 51.0969145 ], [ 6.5059992, 51.0969305 ], [ 6.5057494, 51.0969454 ], [ 6.505511, 51.0969579 ], [ 6.505134, 51.0969743 ], [ 6.5047968, 51.096986 ], [ 6.5044464, 51.096994 ], [ 6.5040998, 51.0969997 ], [ 6.5037654, 51.0970006 ], [ 6.503431, 51.0969978 ], [ 6.5030662, 51.0969911 ], [ 6.5027015, 51.0969809 ], [ 6.5024485, 51.0969729 ], [ 6.5022884, 51.0969656 ], [ 6.5021284, 51.0969583 ], [ 6.5018623, 51.0969447 ], [ 6.5015773, 51.0969287 ], [ 6.5011755, 51.096905 ], [ 6.500766, 51.0968801 ], [ 6.5004231, 51.0968567 ], [ 6.5000878, 51.0968297 ], [ 6.4994686, 51.096783 ], [ 6.4991669, 51.0967604 ], [ 6.4989031, 51.0967391 ], [ 6.4986195, 51.0967147 ], [ 6.4983472, 51.0966928 ], [ 6.4979542, 51.0966571 ], [ 6.4975726, 51.0966203 ], [ 6.4972139, 51.0965859 ], [ 6.4968228, 51.0965455 ], [ 6.4965709, 51.0965199 ], [ 6.4963342, 51.0964943 ], [ 6.4961052, 51.0964676 ], [ 6.4958761, 51.0964408 ], [ 6.4956447, 51.0964146 ], [ 6.4954285, 51.0963884 ], [ 6.4952065, 51.0963599 ], [ 6.4949846, 51.0963313 ], [ 6.4947522, 51.0963023 ], [ 6.4945198, 51.0962733 ], [ 6.49446, 51.096264729849388 ] ] } },
{ "type": "Feature", "properties": { "richtung": "beide", "ref": "A 46" }, "geometry": { "type": "LineString", "coordinates": [ [ 6.49446, 51.096083421036489 ], [ 6.4947433, 51.0961314 ], [ 6.4960372, 51.096342 ] ] } },
{ "type": "Feature", "properties": { "richtung": "beide", "ref": "A 46" }, "geometry": { "type": "LineString", "coordinates": [ [ 6.4960372, 51.096342 ], [ 6.496264, 51.0963663 ], [ 6.4965076, 51.0963936 ], [ 6.4967448, 51.0964196 ], [ 6.497008, 51.0964469 ], [ 6.4982383, 51.0965687 ], [ 6.4985961, 51.0966013 ], [ 6.4990563, 51.0966399 ], [ 6.4995317, 51.0966758 ], [ 6.5001532, 51.0967224 ], [ 6.5007768, 51.0967664 ], [ 6.5011369, 51.0967895 ], [ 6.5015317, 51.0968126 ], [ 6.5018906, 51.0968328 ], [ 6.5022417, 51.0968505 ], [ 6.5024311, 51.0968586 ], [ 6.5026925, 51.0968674 ], [ 6.5029374, 51.0968749 ], [ 6.5031823, 51.09688 ], [ 6.5034182, 51.0968839 ], [ 6.5036521, 51.0968867 ], [ 6.5038386, 51.0968873 ], [ 6.5040289, 51.0968855 ], [ 6.5042163, 51.0968837 ], [ 6.5044076, 51.0968806 ], [ 6.5046688, 51.0968753 ], [ 6.5049281, 51.0968688 ], [ 6.5051736, 51.0968605 ], [ 6.5054231, 51.0968497 ], [ 6.5056658, 51.0968371 ], [ 6.5059124, 51.0968219 ], [ 6.5061771, 51.0968044 ], [ 6.5064388, 51.0967849 ], [ 6.5066067, 51.0967717 ], [ 6.5067716, 51.0967579 ], [ 6.5069472, 51.0967425 ], [ 6.5071249, 51.0967265 ], [ 6.5072868, 51.0967108 ], [ 6.5074566, 51.0966927 ], [ 6.5078334, 51.096654 ], [ 6.5083994, 51.0965947 ], [ 6.5089498, 51.0965343 ], [ 6.5102144, 51.0963955 ], [ 6.5106, 51.096355487883748 ] ] } },
{ "type": "Feature", "properties": { "richtung": "beide", "ref": "A 46" }, "geometry": { "type": "LineString", "coordinates": [ [ 6.52021, 51.097141051377818 ], [ 6.5201519, 51.0971286 ], [ 6.5195419, 51.0969994 ], [ 6.5189984, 51.0968864 ], [ 6.5184757, 51.0967817 ], [ 6.5182544, 51.0967394 ], [ 6.5180692, 51.0967056 ], [ 6.5178801, 51.0966705 ], [ 6.5176949, 51.0966379 ], [ 6.5174618, 51.0965985 ], [ 6.5172269, 51.0965615 ], [ 6.5169833, 51.0965245 ], [ 6.5167379, 51.0964899 ], [ 6.5164504, 51.0964517 ], [ 6.5161667, 51.0964184 ], [ 6.5159773, 51.0963985 ], [ 6.5157973, 51.0963798 ], [ 6.5156003, 51.0963623 ], [ 6.5153861, 51.0963472 ], [ 6.5151071, 51.0963288 ], [ 6.514832, 51.0963139 ], [ 6.5145139, 51.0963017 ], [ 6.5141959, 51.0962943 ], [ 6.5138904, 51.0962902 ], [ 6.5135849, 51.0962884 ], [ 6.5132852, 51.0962927 ], [ 6.5129816, 51.0963005 ], [ 6.5127682, 51.0963081 ], [ 6.5125776, 51.0963157 ], [ 6.5123937, 51.0963258 ], [ 6.5122022, 51.096337 ], [ 6.51206, 51.09634610785124 ] ] } },
{ "type": "Feature", "properties": { "richtung": "beide", "ref": "A 46" }, "geometry": { "type": "LineString", "coordinates": [ [ 6.51206, 51.096233183653844 ], [ 6.5121712, 51.0962261 ], [ 6.5123565, 51.0962149 ], [ 6.5125494, 51.0962038 ], [ 6.512748, 51.0961949 ], [ 6.5129694, 51.0961873 ], [ 6.5132248, 51.0961822 ], [ 6.5135031, 51.0961782 ], [ 6.513864, 51.0961778 ], [ 6.514206, 51.096181 ], [ 6.5143758, 51.0961843 ], [ 6.5145419, 51.0961901 ], [ 6.5148474, 51.0962027 ], [ 6.5150612, 51.0962124 ], [ 6.5152864, 51.0962268 ], [ 6.5154982, 51.0962415 ], [ 6.5157138, 51.096261 ], [ 6.5160423, 51.0962928 ], [ 6.5164292, 51.0963351 ], [ 6.5166132, 51.0963575 ], [ 6.5167971, 51.0963823 ], [ 6.5170322, 51.0964155 ], [ 6.5172559, 51.0964488 ], [ 6.5174796, 51.0964845 ], [ 6.5177147, 51.0965249 ], [ 6.5180787, 51.0965898 ], [ 6.5184466, 51.0966593 ], [ 6.5190485, 51.0967818 ], [ 6.5196542, 51.096909 ], [ 6.52021, 51.097026489630004 ] ] } }
]
}
