{
  "type": "FeatureCollection",
  "features": [
    {
      "type": "Feature",
      "geometry": {
        "coordinates": [
          [
            [
              6.500084,
              51.050743
            ],
            [
              6.500132,
              51.050763
            ],
            [
              6.500138,
              51.051333
            ],
            [
              6.500119,
              51.051485
            ],
            [
              6.500084,
              51.052031
            ],
            [
              6.499953,
              51.052911
            ],
            [
              6.499781,
              51.053801
            ],
            [
              6.499518,
              51.054607
            ],
            [
              6.498939,
              51.055949
            ],
            [
              6.498542,
              51.056664
            ],
            [
              6.498389,
              51.05704
            ],
            [
              6.498891,
              51.05717
            ],
            [
              6.499202,
              51.057257
            ],
            [
              6.499518,
              51.057347
            ],
            [
              6.499558,
              51.057148
            ],
            [
              6.499591,
              51.05694
            ],
            [
              6.499727,
              51.056652
            ],
            [
              6.499872,
              51.056367
            ],
            [
              6.500387,
              51.055086
            ],
            [
              6.500709,
              51.054162
            ],
            [
              6.501052,
              51.052324
            ],
            [
              6.501114,
              51.051163
            ],
            [
              6.50124,
              51.051213
            ],
            [
              6.501404,
              51.051274
            ],
            [
              6.501964,
              51.051501
            ],
            [
              6.502525,
              51.051721
            ],
            [
              6.503212,
              51.052002
            ],
            [
              6.505153,
              51.052815
            ],
            [
              6.507082,
              51.053643
            ],
            [
              6.51088,
              51.055275
            ],
            [
              6.515107,
              51.056974
            ],
            [
              6.517124,
              51.057783
            ],
            [
              6.518648,
              51.058377
            ],
            [
              6.520364,
              51.057379
            ],
            [
              6.519967,
              51.056954
            ],
            [
              6.522306,
              51.056091
            ],
            [
              6.523079,
              51.056947
            ],
            [
              6.523486,
              51.057473
            ],
            [
              6.525729,
              51.057109
            ],
            [
              6.526008,
              51.060939
            ],
            [
              6.526415,
              51.063407
            ],
            [
              6.527059,
              51.065268
            ],
            [
              6.527832,
              51.067304
            ],
            [
              6.528786,
              51.068902
            ],
            [
              6.530836,
              51.070028
            ],
            [
              6.533056,
              51.070028
            ],
            [
              6.533271,
              51.071976
            ],
            [
              6.534076,
              51.071916
            ],
            [
              6.53487,
              51.071949
            ],
            [
              6.534784,
              51.074457
            ],
            [
              6.535428,
              51.076324
            ],
            [
              6.536061,
              51.078185
            ],
            [
              6.535234,
              51.078084
            ],
            [
              6.53296,
              51.077821
            ],
            [
              6.532488,
              51.07925
            ],
            [
              6.53178,
              51.079506
            ],
            [
              6.531136,
              51.079452
            ],
            [
              6.527424,
              51.080598
            ],
            [
              6.526093,
              51.080679
            ],
            [
              6.526008,
              51.081663
            ],
            [
              6.523089,
              51.082377
            ],
            [
              6.52118,
              51.084318
            ],
            [
              6.51912,
              51.086003
            ],
            [
              6.523926,
              51.087405
            ],
            [
              6.525578,
              51.088503
            ],
            [
              6.526212,
              51.089069
            ],
            [
              6.529001,
              51.089379
            ],
            [
              6.530203,
              51.089474
            ],
            [
              6.529961,
              51.089915
            ],
            [
              6.530659,
              51.09007
            ],
            [
              6.53097,
              51.089575
            ],
            [
              6.531581,
              51.089682
            ],
            [
              6.532418,
              51.089831
            ],
            [
              6.536527,
              51.091926
            ],
            [
              6.538239,
              51.093018
            ],
            [
              6.537069,
              51.09413
            ],
            [
              6.534805,
              51.095902
            ],
            [
              6.531254,
              51.098752
            ],
            [
              6.528432,
              51.098051
            ],
            [
              6.52692,
              51.097714
            ],
            [
              6.526254,
              51.097681
            ],
            [
              6.525589,
              51.097553
            ],
            [
              6.523325,
              51.097095
            ],
            [
              6.518165,
              51.096111
            ],
            [
              6.518015,
              51.095471
            ],
            [
              6.51751,
              51.095316
            ],
            [
              6.516931,
              51.095424
            ],
            [
              6.514678,
              51.095134
            ],
            [
              6.513326,
              51.095201
            ],
            [
              6.513712,
              51.094655
            ],
            [
              6.513906,
              51.091974
            ],
            [
              6.51397,
              51.090639
            ],
            [
              6.513133,
              51.090141
            ],
            [
              6.505022,
              51.089602
            ],
            [
              6.502576,
              51.089925
            ],
            [
              6.502361,
              51.089615
            ],
            [
              6.498456,
              51.089777
            ],
            [
              6.49852,
              51.090087
            ],
            [
              6.4941,
              51.09072
            ],
            [
              6.492426,
              51.094359
            ],
            [
              6.489894,
              51.093685
            ],
            [
              6.487191,
              51.093321
            ],
            [
              6.485034,
              51.092917
            ],
            [
              6.482824,
              51.092674
            ],
            [
              6.481687,
              51.092499
            ],
            [
              6.481805,
              51.092412
            ],
            [
              6.479959,
              51.091515
            ],
            [
              6.480303,
              51.090916
            ],
            [
              6.48026,
              51.090447
            ],
            [
              6.48012,
              51.090003
            ],
            [
              6.47967,
              51.089534
            ],
            [
              6.478812,
              51.089002
            ],
            [
              6.477782,
              51.088358
            ],
            [
              6.476993,
              51.087526
            ],
            [
              6.476446,
              51.086852
            ],
            [
              6.476263,
              51.086663
            ],
            [
              6.476129,
              51.086259
            ],
            [
              6.476666,
              51.086178
            ],
            [
              6.477798,
              51.086043
            ],
            [
              6.478382,
              51.085949
            ],
            [
              6.478736,
              51.085898
            ],
            [
              6.478978,
              51.084995
            ],
            [
              6.479176,
              51.084564
            ],
            [
              6.479493,
              51.084055
            ],
            [
              6.479941,
              51.083439
            ],
            [
              6.480609,
              51.082576
            ],
            [
              6.481429,
              51.081626
            ],
            [
              6.484128,
              51.078623
            ],
            [
              6.48667,
              51.075704
            ],
            [
              6.485217,
              51.075522
            ],
            [
              6.48402,
              51.075394
            ],
            [
              6.485109,
              51.07412
            ],
            [
              6.485978,
              51.07321
            ],
            [
              6.487341,
              51.071659
            ],
            [
              6.490152,
              51.072394
            ],
            [
              6.492244,
              51.0699
            ],
            [
              6.4941,
              51.067641
            ],
            [
              6.491665,
              51.066859
            ],
            [
              6.493553,
              51.06483
            ],
            [
              6.495817,
              51.062173
            ],
            [
              6.496804,
              51.06102
            ],
            [
              6.497694,
              51.059833
            ],
            [
              6.49851,
              51.058842
            ],
            [
              6.499497,
              51.057375
            ],
            [
              6.499443,
              51.05736
            ],
            [
              6.499389,
              51.057343
            ],
            [
              6.499355,
              51.057335
            ],
            [
              6.499314,
              51.057327
            ],
            [
              6.499274,
              51.057315
            ],
            [
              6.499234,
              51.057301
            ],
            [
              6.499188,
              51.057289
            ],
            [
              6.49914,
              51.057278
            ],
            [
              6.499097,
              51.057269
            ],
            [
              6.499057,
              51.057256
            ],
            [
              6.499022,
              51.057246
            ],
            [
              6.498979,
              51.057237
            ],
            [
              6.498917,
              51.057219
            ],
            [
              6.498866,
              51.057205
            ],
            [
              6.498797,
              51.05719
            ],
            [
              6.498713,
              51.057163
            ],
            [
              6.498668,
              51.057151
            ],
            [
              6.498606,
              51.057138
            ],
            [
              6.498553,
              51.057126
            ],
            [
              6.498499,
              51.057111
            ],
            [
              6.49844,
              51.057097
            ],
            [
              6.498378,
              51.057077
            ],
            [
              6.498252,
              51.057219
            ],
            [
              6.498236,
              51.057247
            ],
            [
              6.498217,
              51.057266
            ],
            [
              6.498199,
              51.057288
            ],
            [
              6.49734,
              51.058606
            ],
            [
              6.496106,
              51.05832
            ],
            [
              6.494733,
              51.058013
            ],
            [
              6.492791,
              51.060582
            ],
            [
              6.490463,
              51.063319
            ],
            [
              6.493065,
              51.063957
            ],
            [
              6.491852,
              51.065282
            ],
            [
              6.490753,
              51.066492
            ],
            [
              6.489347,
              51.066188
            ],
            [
              6.488135,
              51.065922
            ],
            [
              6.486697,
              51.067453
            ],
            [
              6.485265,
              51.069087
            ],
            [
              6.483817,
              51.070729
            ],
            [
              6.482325,
              51.07229
            ],
            [
              6.485265,
              51.072684
            ],
            [
              6.481247,
              51.077072
            ],
            [
              6.478634,
              51.080092
            ],
            [
              6.477824,
              51.081005
            ],
            [
              6.476945,
              51.082
            ],
            [
              6.47621,
              51.083
            ],
            [
              6.475824,
              51.08355
            ],
            [
              6.4754,
              51.084483
            ],
            [
              6.475099,
              51.0854
            ],
            [
              6.474992,
              51.08633
            ],
            [
              6.474971,
              51.087324
            ],
            [
              6.475142,
              51.088213
            ],
            [
              6.475679,
              51.089191
            ],
            [
              6.475904,
              51.089635
            ],
            [
              6.475936,
              51.090033
            ],
            [
              6.475807,
              51.090518
            ],
            [
              6.475486,
              51.090895
            ],
            [
              6.474702,
              51.091515
            ],
            [
              6.472031,
              51.091873
            ],
            [
              6.46981,
              51.09192
            ],
            [
              6.467611,
              51.091873
            ],
            [
              6.463212,
              51.091718
            ],
            [
              6.460669,
              51.091603
            ],
            [
              6.458759,
              51.091657
            ],
            [
              6.45435,
              51.091953
            ],
            [
              6.451684,
              51.092294
            ],
            [
              6.449039,
              51.092695
            ],
            [
              6.44787,
              51.092752
            ],
            [
              6.447269,
              51.092802
            ],
            [
              6.447253,
              51.092883
            ],
            [
              6.44552,
              51.092998
            ],
            [
              6.442559,
              51.093207
            ],
            [
              6.44434,
              51.089918
            ],
            [
              6.450606,
              51.090242
            ],
            [
              6.451936,
              51.085194
            ],
            [
              6.451592,
              51.080935
            ],
            [
              6.454704,
              51.081703
            ],
            [
              6.454489,
              51.078562
            ],
            [
              6.453009,
              51.07867
            ],
            [
              6.452816,
              51.07654
            ],
            [
              6.450734,
              51.077025
            ],
            [
              6.450627,
              51.076607
            ],
            [
              6.451356,
              51.076122
            ],
            [
              6.450477,
              51.074976
            ],
            [
              6.452365,
              51.074167
            ],
            [
              6.44846,
              51.069394
            ],
            [
              6.447837,
              51.068612
            ],
            [
              6.447172,
              51.06783
            ],
            [
              6.446679,
              51.068262
            ],
            [
              6.444554,
              51.067722
            ],
            [
              6.446314,
              51.065403
            ],
            [
              6.44537,
              51.06516
            ],
            [
              6.447172,
              51.062571
            ],
            [
              6.450305,
              51.063218
            ],
            [
              6.452107,
              51.059874
            ],
            [
              6.459907,
              51.061391
            ],
            [
              6.464092,
              51.060676
            ],
            [
              6.464038,
              51.060359
            ],
            [
              6.471462,
              51.057878
            ],
            [
              6.473222,
              51.059092
            ],
            [
              6.477385,
              51.056124
            ],
            [
              6.47511,
              51.054587
            ],
            [
              6.468244,
              51.049664
            ],
            [
              6.463072,
              51.045873
            ],
            [
              6.464757,
              51.045718
            ],
            [
              6.464435,
              51.044612
            ],
            [
              6.464188,
              51.043519
            ],
            [
              6.463952,
              51.042365
            ],
            [
              6.463813,
              51.041212
            ],
            [
              6.465529,
              51.040463
            ],
            [
              6.466902,
              51.039879
            ],
            [
              6.468946,
              51.039046
            ],
            [
              6.470046,
              51.038577
            ],
            [
              6.47033,
              51.038729
            ],
            [
              6.472203,
              51.038537
            ],
            [
              6.474177,
              51.038254
            ],
            [
              6.477486,
              51.037684
            ],
            [
              6.479664,
              51.037333
            ],
            [
              6.481129,
              51.037083
            ],
            [
              6.481757,
              51.036786
            ],
            [
              6.482481,
              51.038119
            ],
            [
              6.482502,
              51.038655
            ],
            [
              6.483618,
              51.040557
            ],
            [
              6.484165,
              51.041441
            ],
            [
              6.484509,
              51.042318
            ],
            [
              6.485356,
              51.042871
            ],
            [
              6.487201,
              51.04416
            ],
            [
              6.488202,
              51.044854
            ],
            [
              6.488508,
              51.044853
            ],
            [
              6.492051,
              51.047397
            ],
            [
              6.499148,
              51.050328
            ],
            [
              6.499695,
              51.050567
            ],
            [
              6.500084,
              51.050743
            ]
          ]
        ],
        "type": "Polygon"
      },
      "properties": {
        "_umap_options": {
          "color": "DarkOrange",
          "weight": 9
        },
        "name": "Energielandschaft_Juechen_Agri_PV",
        "description": "Agri-PV Fläche"
      },
      "id": "AzODE"
    }
  ]
}