{
  "features": [
    {
      "geometry": {
        "coordinates": [
          [
            6.4811540598620985,
            51.07070019933024
          ],
          [
            6.481851760195865,
            51.070715240020405
          ]
        ],
        "type": "LineString"
      },
      "properties": {
        "length_m": 48.93,
        "orientation": "EW",
        "row": 0,
        "segment": 0
      },
      "type": "Feature"
    },
    {
      "geometry": {
        "coordinates": [
          [
            6.480980860464168,
            51.070916823185065
          ],
          [
            6.483073972758583,
            51.070961936009944
          ]
        ],
        "type": "LineString"
      },
      "properties": {
        "length_m": 146.791,
        "orientation": "EW",
        "row": 1,
        "segment": 0
      },
      "type": "Feature"
    },
    {
      "geometry": {
        "coordinates": [
          [
            6.480807659421104,
            51.071133446753
          ],
          [
            6.483021845035927,
            51.071181171128494
          ]
        ],
        "type": "LineString"
      },
      "properties": {
        "length_m": 155.281,
        "orientation": "EW",
        "row": 2,
        "segment": 0
      },
      "type": "Feature"
    },
    {
      "geometry": {
        "coordinates": [
          [
            6.480634456732879,
            51.07135007003405
          ],
          [
            6.4828138985205195,
            51.07139704902627
          ]
        ],
        "type": "LineString"
      },
      "properties": {
        "length_m": 152.844,
        "orientation": "EW",
        "row": 3,
        "segment": 0
      },
      "type": "Feature"
    },
    {
      "geometry": {
        "coordinates": [
          [
            6.480461252399467,
            51.0715666930282
          ],
          [
            6.482605950046249,
            51.07161292651939
          ]
        ],
        "type": "LineString"
      },
      "properties": {
        "length_m": 150.406,
        "orientation": "EW",
        "row": 4,
        "segment": 0
      },
      "type": "Feature"
    },
    {
      "geometry": {
        "coordinates": [
          [
            6.4802880464208386,
            51.07178331573546
          ],
          [
            6.482397999613088,
            51.07182880360784
          ]
        ],
        "type": "LineString"
      },
      "properties": {
        "length_m": 147.969,
        "orientation": "EW",
        "row": 5,
        "segment": 0
      },
      "type": "Feature"
    },
    {
      "geometry": {
        "coordinates": [
          [
            6.4801148387969665,
            51.071999938155784
          ],
          [
            6.482190047221004,
            51.072044680291604
          ]
        ],
        "type": "LineString"
      },
      "properties": {
        "length_m": 145.532,
        "orientation": "EW",
        "row": 6,
        "segment": 0
      },
      "type": "Feature"
    },
    {
      "geometry": {
        "coordinates": [
          [
            6.479941629527822,
            51.07221656028921
          ],
          [
            6.481983305239293,
            51.072260582701055
          ]
        ],
        "type": "LineString"
      },
      "properties": {
        "length_m": 143.179,
        "orientation": "EW",
        "row": 7,
        "segment": 0
      },
      "type": "Feature"
    },
    {
      "geometry": {
        "coordinates": [
          [
            6.4797684186133795,
            51.07243318213573
          ],
          [
            6.481797058465617,
            51.072476926522334
          ]
        ],
        "type": "LineString"
      },
      "properties": {
        "length_m": 142.265,
        "orientation": "EW",
        "row": 8,
        "segment": 0
      },
      "type": "Feature"
    },
    {
      "geometry": {
        "coordinates": [
          [
            6.490130065845811,
            51.072656244390025
          ],
          [
            6.490622983326492,
            51.07266683282375
          ]
        ],
        "type": "LineString"
      },
      "properties": {
        "length_m": 34.567,
        "orientation": "EW",
        "row": 8,
        "segment": 1
      },
      "type": "Feature"
    },
    {
      "geometry": {
        "coordinates": [
          [
            6.479595206053611,
            51.07264980369532
          ],
          [
            6.481610809928574,
            51.0726932700149
          ]
        ],
        "type": "LineString"
      },
      "properties": {
        "length_m": 141.35,
        "orientation": "EW",
        "row": 9,
        "segment": 0
      },
      "type": "Feature"
    },
    {
      "geometry": {
        "coordinates": [
          [
            6.4899118782550556,
            51.07287191467902
          ],
          [
            6.491569032250514,
            51.07290750701981
          ]
        ],
        "type": "LineString"
      },
      "properties": {
        "length_m": 116.211,
        "orientation": "EW",
        "row": 9,
        "segment": 1
      },
      "type": "Feature"
    },
    {
      "geometry": {
        "coordinates": [
          [
            6.47942199184849,
            51.07286642496795
          ],
          [
            6.481424559628134,
            51.0729096131788
          ]
        ],
        "type": "LineString"
      },
      "properties": {
        "length_m": 140.435,
        "orientation": "EW",
        "row": 10,
        "segment": 0
      },
      "type": "Feature"
    },
    {
      "geometry": {
        "coordinates": [
          [
            6.489693688613382,
            51.07308758452477
          ],
          [
            6.4925150912226375,
            51.073148173682696
          ]
        ],
        "type": "LineString"
      },
      "properties": {
        "length_m": 197.855,
        "orientation": "EW",
        "row": 10,
        "segment": 1
      },
      "type": "Feature"
    },
    {
      "geometry": {
        "coordinates": [
          [
            6.479248775997987,
            51.073083045953666
          ],
          [
            6.481238307564268,
            51.073125956013975
          ]
        ],
        "type": "LineString"
      },
      "properties": {
        "length_m": 139.52,
        "orientation": "EW",
        "row": 11,
        "segment": 0
      },
      "type": "Feature"
    },
    {
      "geometry": {
        "coordinates": [
          [
            6.489475496920764,
            51.07330325392727
          ],
          [
            6.493461160242661,
            51.073388832812185
          ]
        ],
        "type": "LineString"
      },
      "properties": {
        "length_m": 279.499,
        "orientation": "EW",
        "row": 11,
        "segment": 1
      },
      "type": "Feature"
    },
    {
      "geometry": {
        "coordinates": [
          [
            6.479075558502073,
            51.07329966665244
          ],
          [
            6.481052053736946,
            51.073342298520465
          ]
        ],
        "type": "LineString"
      },
      "properties": {
        "length_m": 138.605,
        "orientation": "EW",
        "row": 12,
        "segment": 0
      },
      "type": "Feature"
    },
    {
      "geometry": {
        "coordinates": [
          [
            6.489257303177161,
            51.07351892288651
          ],
          [
            6.494197789122019,
            51.073624992258054
          ]
        ],
        "type": "LineString"
      },
      "properties": {
        "length_m": 346.456,
        "orientation": "EW",
        "row": 12,
        "segment": 1
      },
      "type": "Feature"
    },
    {
      "geometry": {
        "coordinates": [
          [
            6.478902339360723,
            51.07351628706426
          ],
          [
            6.48086579814614,
            51.07355864069824
          ]
        ],
        "type": "LineString"
      },
      "properties": {
        "length_m": 137.691,
        "orientation": "EW",
        "row": 13,
        "segment": 0
      },
      "type": "Feature"
    },
    {
      "geometry": {
        "coordinates": [
          [
            6.4890391073825455,
            51.073734591402484
          ],
          [
            6.494031164329558,
            51.07384177602887
          ]
        ],
        "type": "LineString"
      },
      "properties": {
        "length_m": 350.071,
        "orientation": "EW",
        "row": 13,
        "segment": 1
      },
      "type": "Feature"
    },
    {
      "geometry": {
        "coordinates": [
          [
            6.47872911857391,
            51.07373290718912
          ],
          [
            6.4806795407918205,
            51.07377498254727
          ]
        ],
        "type": "LineString"
      },
      "properties": {
        "length_m": 136.776,
        "orientation": "EW",
        "row": 14,
        "segment": 0
      },
      "type": "Feature"
    },
    {
      "geometry": {
        "coordinates": [
          [
            6.488820909536883,
            51.073950259475176
          ],
          [
            6.493864537951505,
            51.07405855953289
          ]
        ],
        "type": "LineString"
      },
      "properties": {
        "length_m": 353.685,
        "orientation": "EW",
        "row": 14,
        "segment": 1
      },
      "type": "Feature"
    },
    {
      "geometry": {
        "coordinates": [
          [
            6.478555896141604,
            51.073949527027025
          ],
          [
            6.480493281673958,
            51.073991324067606
          ]
        ],
        "type": "LineString"
      },
      "properties": {
        "length_m": 135.861,
        "orientation": "EW",
        "row": 15,
        "segment": 0
      },
      "type": "Feature"
    },
    {
      "geometry": {
        "coordinates": [
          [
            6.488602709640143,
            51.07416592710457
          ],
          [
            6.493697909987833,
            51.074275342770086
          ]
        ],
        "type": "LineString"
      },
      "properties": {
        "length_m": 357.3,
        "orientation": "EW",
        "row": 15,
        "segment": 1
      },
      "type": "Feature"
    },
    {
      "geometry": {
        "coordinates": [
          [
            6.47838267206378,
            51.074166146577966
          ],
          [
            6.480307020792525,
            51.07420766525919
          ]
        ],
        "type": "LineString"
      },
      "properties": {
        "length_m": 134.946,
        "orientation": "EW",
        "row": 16,
        "segment": 0
      },
      "type": "Feature"
    },
    {
      "geometry": {
        "coordinates": [
          [
            6.488384507692292,
            51.074381594290685
          ],
          [
            6.493531280438518,
            51.07449212574047
          ]
        ],
        "type": "LineString"
      },
      "properties": {
        "length_m": 360.915,
        "orientation": "EW",
        "row": 16,
        "segment": 1
      },
      "type": "Feature"
    },
    {
      "geometry": {
        "coordinates": [
          [
            6.478209446340408,
            51.07438276584192
          ],
          [
            6.48012075814749,
            51.07442400612204
          ]
        ],
        "type": "LineString"
      },
      "properties": {
        "length_m": 134.031,
        "orientation": "EW",
        "row": 17,
        "segment": 0
      },
      "type": "Feature"
    },
    {
      "geometry": {
        "coordinates": [
          [
            6.488166303693298,
            51.07459726103348
          ],
          [
            6.493364649303531,
            51.07470890844403
          ]
        ],
        "type": "LineString"
      },
      "properties": {
        "length_m": 364.53,
        "orientation": "EW",
        "row": 17,
        "segment": 1
      },
      "type": "Feature"
    },
    {
      "geometry": {
        "coordinates": [
          [
            6.47803621897146,
            51.07459938481891
          ],
          [
            6.479934817129196,
            51.07464035363178
          ]
        ],
        "type": "LineString"
      },
      "properties": {
        "length_m": 133.139,
        "orientation": "EW",
        "row": 18,
        "segment": 0
      },
      "type": "Feature"
    },
    {
      "geometry": {
        "coordinates": [
          [
            6.487948097643128,
            51.07481292733297
          ],
          [
            6.493198016582845,
            51.07492569088077
          ]
        ],
        "type": "LineString"
      },
      "properties": {
        "length_m": 368.145,
        "orientation": "EW",
        "row": 18,
        "segment": 1
      },
      "type": "Feature"
    },
    {
      "geometry": {
        "coordinates": [
          [
            6.477862989956911,
            51.07481600350891
          ],
          [
            6.479764336066136,
            51.07485703435097
          ]
        ],
        "type": "LineString"
      },
      "properties": {
        "length_m": 133.331,
        "orientation": "EW",
        "row": 19,
        "segment": 0
      },
      "type": "Feature"
    },
    {
      "geometry": {
        "coordinates": [
          [
            6.487729889541749,
            51.07502859318913
          ],
          [
            6.493035309892155,
            51.07514255732934
          ]
        ],
        "type": "LineString"
      },
      "properties": {
        "length_m": 372.035,
        "orientation": "EW",
        "row": 19,
        "segment": 1
      },
      "type": "Feature"
    },
    {
      "geometry": {
        "coordinates": [
          [
            6.477689759296732,
            51.075032621911916
          ],
          [
            6.479593853382382,
            51.07507371479162
          ]
        ],
        "type": "LineString"
      },
      "properties": {
        "length_m": 133.523,
        "orientation": "EW",
        "row": 20,
        "segment": 0
      },
      "type": "Feature"
    },
    {
      "geometry": {
        "coordinates": [
          [
            6.48751167938913,
            51.075244258601955
          ],
          [
            6.492872832006583,
            51.07535942846592
          ]
        ],
        "type": "LineString"
      },
      "properties": {
        "length_m": 375.942,
        "orientation": "EW",
        "row": 20,
        "segment": 1
      },
      "type": "Feature"
    },
    {
      "geometry": {
        "coordinates": [
          [
            6.477516526990895,
            51.07524924002794
          ],
          [
            6.479423369077906,
            51.075290394953726
          ]
        ],
        "type": "LineString"
      },
      "properties": {
        "length_m": 133.715,
        "orientation": "EW",
        "row": 21,
        "segment": 0
      },
      "type": "Feature"
    },
    {
      "geometry": {
        "coordinates": [
          [
            6.487293467185239,
            51.07545992357142
          ],
          [
            6.49271035257305,
            51.0755762993479
          ]
        ],
        "type": "LineString"
      },
      "properties": {
        "length_m": 379.848,
        "orientation": "EW",
        "row": 21,
        "segment": 1
      },
      "type": "Feature"
    },
    {
      "geometry": {
        "coordinates": [
          [
            6.4773432930393735,
            51.07546585785693
          ],
          [
            6.4792528831526806,
            51.07550707483729
          ]
        ],
        "type": "LineString"
      },
      "properties": {
        "length_m": 133.907,
        "orientation": "EW",
        "row": 22,
        "segment": 0
      },
      "type": "Feature"
    },
    {
      "geometry": {
        "coordinates": [
          [
            6.487075252930042,
            51.07567558809756
          ],
          [
            6.492547871591529,
            51.075793169975285
          ]
        ],
        "type": "LineString"
      },
      "properties": {
        "length_m": 383.755,
        "orientation": "EW",
        "row": 22,
        "segment": 1
      },
      "type": "Feature"
    },
    {
      "geometry": {
        "coordinates": [
          [
            6.477170057442137,
            51.07568247539895
          ],
          [
            6.479082395606679,
            51.0757237544423
          ]
        ],
        "type": "LineString"
      },
      "properties": {
        "length_m": 134.1,
        "orientation": "EW",
        "row": 23,
        "segment": 0
      },
      "type": "Feature"
    },
    {
      "geometry": {
        "coordinates": [
          [
            6.486864788081983,
            51.07589141892
          ],
          [
            6.492385389061993,
            51.076010040348045
          ]
        ],
        "type": "LineString"
      },
      "properties": {
        "length_m": 387.117,
        "orientation": "EW",
        "row": 23,
        "segment": 1
      },
      "type": "Feature"
    },
    {
      "geometry": {
        "coordinates": [
          [
            6.476996820199163,
            51.07589909265395
          ],
          [
            6.478911906439873,
            51.07594043376876
          ]
        ],
        "type": "LineString"
      },
      "properties": {
        "length_m": 134.292,
        "orientation": "EW",
        "row": 24,
        "segment": 0
      },
      "type": "Feature"
    },
    {
      "geometry": {
        "coordinates": [
          [
            6.486672049549282,
            51.076107630706865
          ],
          [
            6.492222904984419,
            51.07622691046619
          ]
        ],
        "type": "LineString"
      },
      "properties": {
        "length_m": 389.237,
        "orientation": "EW",
        "row": 24,
        "segment": 1
      },
      "type": "Feature"
    },
    {
      "geometry": {
        "coordinates": [
          [
            6.47682358131042,
            51.0761157096219
          ],
          [
            6.478741415652237,
            51.07615711281662
          ]
        ],
        "type": "LineString"
      },
      "properties": {
        "length_m": 134.484,
        "orientation": "EW",
        "row": 25,
        "segment": 0
      },
      "type": "Feature"
    },
    {
      "geometry": {
        "coordinates": [
          [
            6.486479309194336,
            51.07632384214321
          ],
          [
            6.492060419358778,
            51.07644378032972
          ]
        ],
        "type": "LineString"
      },
      "properties": {
        "length_m": 391.357,
        "orientation": "EW",
        "row": 25,
        "segment": 1
      },
      "type": "Feature"
    },
    {
      "geometry": {
        "coordinates": [
          [
            6.47665034077588,
            51.076332326302854
          ],
          [
            6.478570923243743,
            51.07637379158594
          ]
        ],
        "type": "LineString"
      },
      "properties": {
        "length_m": 134.676,
        "orientation": "EW",
        "row": 26,
        "segment": 0
      },
      "type": "Feature"
    },
    {
      "geometry": {
        "coordinates": [
          [
            6.486286567017115,
            51.076540053229046
          ],
          [
            6.4919174923822895,
            51.07666106984464
          ]
        ],
        "type": "LineString"
      },
      "properties": {
        "length_m": 394.848,
        "orientation": "EW",
        "row": 26,
        "segment": 1
      },
      "type": "Feature"
    },
    {
      "geometry": {
        "coordinates": [
          [
            6.476477098595518,
            51.07654894269677
          ],
          [
            6.478400429214363,
            51.07659047007667
          ]
        ],
        "type": "LineString"
      },
      "properties": {
        "length_m": 134.868,
        "orientation": "EW",
        "row": 27,
        "segment": 0
      },
      "type": "Feature"
    },
    {
      "geometry": {
        "coordinates": [
          [
            6.486093823017589,
            51.07675626396434
          ],
          [
            6.491783526986091,
            51.076878551579085
          ]
        ],
        "type": "LineString"
      },
      "properties": {
        "length_m": 398.968,
        "orientation": "EW",
        "row": 27,
        "segment": 1
      },
      "type": "Feature"
    },
    {
      "geometry": {
        "coordinates": [
          [
            6.476303854769305,
            51.07676555880365
          ],
          [
            6.478229933564072,
            51.076807148288815
          ]
        ],
        "type": "LineString"
      },
      "properties": {
        "length_m": 135.06,
        "orientation": "EW",
        "row": 28,
        "segment": 0
      },
      "type": "Feature"
    },
    {
      "geometry": {
        "coordinates": [
          [
            6.485901077195728,
            51.0769724743491
          ],
          [
            6.491649560302324,
            51.07709603313495
          ]
        ],
        "type": "LineString"
      },
      "properties": {
        "length_m": 403.088,
        "orientation": "EW",
        "row": 28,
        "segment": 1
      },
      "type": "Feature"
    },
    {
      "geometry": {
        "coordinates": [
          [
            6.476130609297212,
            51.076982174623474
          ],
          [
            6.478059436292839,
            51.07702382622237
          ]
        ],
        "type": "LineString"
      },
      "properties": {
        "length_m": 135.252,
        "orientation": "EW",
        "row": 29,
        "segment": 0
      },
      "type": "Feature"
    },
    {
      "geometry": {
        "coordinates": [
          [
            6.485708329551502,
            51.077188684383316
          ],
          [
            6.491515592330968,
            51.0773135145122
          ]
        ],
        "type": "LineString"
      },
      "properties": {
        "length_m": 407.208,
        "orientation": "EW",
        "row": 29,
        "segment": 1
      },
      "type": "Feature"
    },
    {
      "geometry": {
        "coordinates": [
          [
            6.475957362179216,
            51.07719879015625
          ],
          [
            6.477888937400639,
            51.07724050387734
          ]
        ],
        "type": "LineString"
      },
      "properties": {
        "length_m": 135.444,
        "orientation": "EW",
        "row": 30,
        "segment": 0
      },
      "type": "Feature"
    },
    {
      "geometry": {
        "coordinates": [
          [
            6.485515580084884,
            51.077404894066966
          ],
          [
            6.491381623071998,
            51.077530995710845
          ]
        ],
        "type": "LineString"
      },
      "properties": {
        "length_m": 411.328,
        "orientation": "EW",
        "row": 30,
        "segment": 1
      },
      "type": "Feature"
    },
    {
      "geometry": {
        "coordinates": [
          [
            6.475784113415283,
            51.07741540540199
          ],
          [
            6.477718436887446,
            51.07745718125371
          ]
        ],
        "type": "LineString"
      },
      "properties": {
        "length_m": 135.636,
        "orientation": "EW",
        "row": 31,
        "segment": 0
      },
      "type": "Feature"
    },
    {
      "geometry": {
        "coordinates": [
          [
            6.485323817317215,
            51.077621124676654
          ],
          [
            6.491247652525393,
            51.077748476730875
          ]
        ],
        "type": "LineString"
      },
      "properties": {
        "length_m": 415.378,
        "orientation": "EW",
        "row": 31,
        "segment": 1
      },
      "type": "Feature"
    }
  ],
  "type": "FeatureCollection"
}